STARLINK-31425          
1 59253U 24049Y   26068.26733679 -.00001731  00000+0 -53437-4 0  9997
2 59253  43.0035 145.7350 0000675 246.9018 113.1763 15.27567132112335
FLOCK 4G-15             
1 62678U 25009BX  26068.71779869  .00012647  00000+0  47575-3 0  9991
2 62678  97.4054 151.1927 0003699 316.8208  43.2740 15.27266411121358
